NORAD_CAT_ID,OBJECT_NAME,OBJECT_TYPE,EPOCH,MEAN_MOTION,ECCENTRICITY,INCLINATION,RA_OF_ASC_NODE,ARG_OF_PERICENTER,MEAN_ANOMALY,BSTAR,MEAN_MOTION_DOT,MEAN_MOTION_DDOT,TLE_LINE0,TLE_LINE1,TLE_LINE2,SEMIMAJOR_AXIS,PERIOD,APOGEE,PERIGEE,DECAYED
51990.0,STARLINK-3657,PAYLOAD,2024-06-19 14:11:34,15.08830472,0.0001276,53.2208,318.7638,91.7991,268.3147,0.00014908,2.085e-05,0.0,0 STARLINK-3657,1 51990U 22025AL  24171.59137523  .00002085  00000-0  14908-3 0  9995,2 51990  53.2208 318.7638 0001276  91.7991 268.3147 15.08830472126518,6917.91,95.438,540.657,538.892,0.0
51990.0,STARLINK-3657,PAYLOAD,2024-06-19 17:22:20,15.08836002,0.0001283,53.2195,318.1693,91.7138,268.4001,9.4325e-05,1.213e-05,0.0,0 STARLINK-3657,1 51990U 22025AL  24171.72385327  .00001213  00000-0  94325-4 0  9991,2 51990  53.2195 318.1693 0001283  91.7138 268.4001 15.08836002127638,6917.893,95.438,540.645,538.87,0.0
51990.0,STARLINK-3657,PAYLOAD,2024-06-20 14:02:21,15.08838816,0.0001365,53.2192,314.3036,85.9097,274.2051,0.00010247,1.343e-05,0.0,0 STARLINK-3657,1 51990U 22025AL  24172.58497506  .00001343  00000-0  10247-3 0  9993,2 51990  53.2192 314.3036 0001365  85.9097 274.2051 15.08838816126661,6917.884,95.438,540.693,538.805,0.0
51990.0,STARLINK-3657,PAYLOAD,2024-06-20 17:13:07,15.08842896,0.000123,53.2189,313.7086,82.4165,277.6967,8.3325e-05,1.039e-05,0.0,0 STARLINK-3657,1 51990U 22025AL  24172.71745299  .00001039  00000-0  83325-4 0  9993,2 51990  53.2189 313.7086 0001230  82.4165 277.6967 15.08842896126682,6917.872,95.437,540.587,538.886,0.0
51990.0,STARLINK-3657,PAYLOAD,2024-06-21 09:06:59,15.08843682,0.0001449,53.2192,310.7356,83.8401,276.2757,5.569e-05,5.99e-06,0.0,0 STARLINK-3657,1 51990U 22025AL  24173.37985391  .00000599  00000-0  55690-4 0  9999,2 51990  53.2192 310.7356 0001449  83.8401 276.2757 15.08843682127882,6917.869,95.437,540.737,538.732,0.0
51990.0,STARLINK-3657,PAYLOAD,2024-06-21 13:53:08,15.08852089,0.0001424,53.2192,309.8441,80.67,279.4453,-3.7111e-05,-8.79e-06,0.0,0 STARLINK-3657,1 51990U 22025AL  24173.57856955 -.00000879  00000-0 -37111-4 0  9995,2 51990  53.2192 309.8441 0001424  80.6700 279.4453 15.08852089126817,6917.843,95.437,540.694,538.723,0.0
51990.0,STARLINK-3657,PAYLOAD,2024-06-21 15:28:31,15.08844805,0.0001351,53.2191,309.5463,78.9228,281.1916,0.00011584,1.556e-05,0.0,0 STARLINK-3657,1 51990U 22025AL  24173.64481217  .00001556  00000-0  11584-3 0  9994,2 51990  53.2191 309.5463 0001351  78.9228 281.1916 15.08844805126823,6917.866,95.437,540.665,538.796,0.0
51990.0,STARLINK-3657,PAYLOAD,2024-06-22 12:08:32,15.0884108,0.0001337,53.2186,305.681,78.0865,282.0277,7.2686e-05,8.69e-06,0.0,0 STARLINK-3657,1 51990U 22025AL  24174.50593490  .00000869  00000-0  72686-4 0  9994,2 51990  53.2186 305.6810 0001337  78.0865 282.0277 15.08841080128051,6917.877,95.437,540.667,538.817,0.0
51990.0,STARLINK-3657,PAYLOAD,2024-06-22 13:43:55,15.08840597,0.0001244,53.2189,305.3839,79.2718,280.8414,6.9826e-05,8.24e-06,0.0,0 STARLINK-3657,1 51990U 22025AL  24174.57217489  .00000824  00000-0  69826-4 0  9995,2 51990  53.2189 305.3839 0001244  79.2718 280.8414 15.08840597126968,6917.879,95.438,540.604,538.883,0.0
51990.0,STARLINK-3657,PAYLOAD,2024-06-22 15:19:18,15.08843549,0.0001264,53.2189,305.0858,80.1277,279.9858,5.7549e-05,6.28e-06,0.0,0 STARLINK-3657,1 51990U 22025AL  24174.63841332  .00000628  00000-0  57549-4 0  9993,2 51990  53.2189 305.0858 0001264  80.1277 279.9858 15.08843549126971,6917.87,95.437,540.609,538.86,0.0
51990.0,STARLINK-3657,PAYLOAD,2024-06-23 13:34:42,15.08841283,0.0001513,53.2199,300.9231,113.4269,246.6882,4.8479e-05,4.84e-06,0.0,0 STARLINK-3657,1 51990U 22025AL  24175.56577273  .00000484  00000-0  48479-4 0  9998,2 51990  53.2199 300.9231 0001513 113.4269 246.6882 15.08841283127117,6917.876,95.437,540.788,538.695,0.0
51990.0,STARLINK-3657,PAYLOAD,2024-06-24 13:25:29,15.08844753,0.0001328,53.2192,296.4626,103.3921,256.7219,9.9179e-05,1.291e-05,0.0,0 STARLINK-3657,1 51990U 22025AL  24176.55936857  .00001291  00000-0  99179-4 0  9995,2 51990  53.2192 296.4626 0001328 103.3921 256.7219 15.08844753127261,6917.866,95.437,540.65,538.812,0.0
51990.0,STARLINK-3657,PAYLOAD,2024-06-25 13:16:17,15.08837104,0.000131,53.2186,292.0017,106.4757,253.6379,1.6863e-05,-2e-07,0.0,0 STARLINK-3657,1 51990U 22025AL  24177.55297589 -.00000020  00000-0  16863-4 0  9997,2 51990  53.2186 292.0017 0001310 106.4757 253.6379 15.08837104128516,6917.889,95.438,540.66,538.848,0.0
51990.0,STARLINK-3657,PAYLOAD,2024-06-25 14:51:39,15.08840364,0.0001321,53.2187,291.7026,112.0004,248.1128,3.9338e-05,3.38e-06,0.0,0 STARLINK-3657,1 51990U 22025AL  24177.61921295  .00000338  00000-0  39338-4 0  9995,2 51990  53.2187 291.7026 0001321 112.0004 248.1128 15.08840364127425,6917.879,95.438,540.658,538.83,0.0
51990.0,STARLINK-3657,PAYLOAD,2024-06-25 16:27:03,15.08841873,0.0001422,53.2188,291.4037,118.7254,241.3881,4.244e-05,3.88e-06,0.0,0 STARLINK-3657,1 51990U 22025AL  24177.68545140  .00000388  00000-0  42440-4 0  9996,2 51990  53.2188 291.4037 0001422 118.7254 241.3881 15.08841873127435,6917.875,95.437,540.723,538.756,0.0
51990.0,STARLINK-3657,PAYLOAD,2024-06-26 11:31:40,15.08845006,0.0001452,53.2187,287.8345,117.9197,242.1942,3.1353e-05,2.11e-06,0.0,0 STARLINK-3657,1 51990U 22025AL  24178.48032945  .00000211  00000-0  31353-4 0  9995,2 51990  53.2187 287.8345 0001452 117.9197 242.1942 15.08845006127557,6917.865,95.437,540.735,538.726,0.0
51990.0,STARLINK-3657,PAYLOAD,2024-06-27 12:57:50,15.08843084,0.0001273,53.2196,283.0846,103.1929,256.9205,6.4699e-05,7.42e-06,0.0,0 STARLINK-3657,1 51990U 22025AL  24179.54017222  .00000742  00000-0  64699-4 0  9992,2 51990  53.2196 283.0846 0001273 103.1929 256.9205 15.08843084128811,6917.871,95.437,540.617,538.855,0.0
51990.0,STARLINK-3657,PAYLOAD,2024-06-27 19:19:22,15.0885244,0.0001266,53.2191,281.8891,87.4481,272.6656,0.00012181,1.652e-05,0.0,0 STARLINK-3657,1 51990U 22025AL  24179.80512365  .00001652  00000-0  12181-3 0  9998,2 51990  53.2191 281.8891 0001266  87.4481 272.6656 15.08852440128856,6917.842,95.437,540.583,538.832,0.0
51990.0,STARLINK-3657,PAYLOAD,2024-06-28 12:48:37,15.08841026,0.0001509,53.2173,278.6146,97.5361,262.5802,8.423e-05,1.053e-05,0.0,0 STARLINK-3657,1 51990U 22025AL  24180.53377243  .00001053  00000-0  84230-4 0  9994,2 51990  53.2173 278.6146 0001509  97.5361 262.5802 15.08841026128963,6917.877,95.437,540.786,538.698,0.0
51990.0,STARLINK-3657,PAYLOAD,2024-06-28 14:24:00,15.08852289,0.0001459,53.2179,278.3205,85.6841,274.4318,0.00018951,2.73e-05,0.0,0 STARLINK-3657,1 51990U 22025AL  24180.60000413  .00002730  00000-0  18951-3 0  9993,2 51990  53.2179 278.3205 0001459  85.6841 274.4318 15.08852289127873,6917.843,95.437,540.717,538.699,0.0
51990.0,STARLINK-3657,PAYLOAD,2024-06-28 19:10:09,15.08856414,0.0001263,53.2178,277.4265,101.9917,258.1217,0.00023819,3.507e-05,0.0,0 STARLINK-3657,1 51990U 22025AL  24180.79871798  .00003507  00000-0  23819-3 0  9997,2 51990  53.2178 277.4265 0001263 101.9917 258.1217 15.08856414129005,6917.83,95.437,540.569,538.821,0.0
51990.0,STARLINK-3657,PAYLOAD,2024-06-28 23:56:20,15.08819234,0.0001469,53.2167,276.5346,94.8275,265.2885,-0.00035884,-5.991e-05,0.0,0 STARLINK-3657,1 51990U 22025AL  24180.99746291 -.00005991  00000-0 -35884-3 0  9994,2 51990  53.2167 276.5346 0001469  94.8275 265.2885 15.08819234129030,6917.944,95.439,540.825,538.793,0.0
51990.0,STARLINK-3657,PAYLOAD,2024-06-29 12:39:25,15.08829742,0.0001119,53.2138,274.1594,86.1687,273.9433,-0.00013592,-2.45e-05,0.0,0 STARLINK-3657,1 51990U 22025AL  24181.52738073 -.00002450  00000-0 -13592-3 0  9992,2 51990  53.2138 274.1594 0001119  86.1687 273.9433 15.08829742129119,6917.912,95.438,540.551,539.003,0.0
51990.0,STARLINK-3657,PAYLOAD,2024-06-29 14:14:48,15.08832434,0.0001362,53.2147,273.8604,93.693,266.4218,-8.6438e-05,-1.663e-05,0.0,0 STARLINK-3657,1 51990U 22025AL  24181.59362022 -.00001663  00000-0 -86438-4 0  9991,2 51990  53.2147 273.8604 0001362  93.6930 266.4218 15.08832434128020,6917.904,95.438,540.711,538.826,0.0
51990.0,STARLINK-3657,PAYLOAD,2024-06-30 10:54:49,15.0884304,0.0001409,53.2166,269.9953,83.0859,277.0294,2.2571e-05,7.1e-07,0.0,0 STARLINK-3657,1 51990U 22025AL  24182.45474167  .00000071  00000-0  22571-4 0  9999,2 51990  53.2166 269.9953 0001409  83.0859 277.0294 15.08843040129252,6917.871,95.437,540.711,538.761,0.0
51990.0,STARLINK-3657,PAYLOAD,2024-06-30 12:30:12,15.08844758,0.0001367,53.217,269.6968,85.2736,274.8412,6.5368e-05,7.53e-06,0.0,0 STARLINK-3657,1 51990U 22025AL  24182.52098033  .00000753  00000-0  65368-4 0  9999,2 51990  53.2170 269.6968 0001367  85.2736 274.8412 15.08844758128164,6917.866,95.437,540.677,538.785,0.0
51990.0,STARLINK-3657,PAYLOAD,2024-06-30 15:40:59,15.08844014,0.0001412,53.2168,269.1016,83.4784,276.6368,0.00023849,3.51e-05,0.0,0 STARLINK-3657,1 51990U 22025AL  24182.65346207  .00003510  00000-0  23849-3 0  9993,2 51990  53.2168 269.1016 0001412  83.4784 276.6368 15.08844014128181,6917.868,95.437,540.71,538.756,0.0
51990.0,STARLINK-3657,PAYLOAD,2024-07-01 12:20:59,15.08847064,0.0001357,53.2166,265.2371,76.0943,284.02,0.00027983,4.169e-05,0.0,0 STARLINK-3657,1 51990U 22025AL  24183.51458134  .00004169  00000-0  27983-3 0  9996,2 51990  53.2166 265.2371 0001357  76.0943 284.0200 15.08847064129416,6917.859,95.437,540.663,538.785,0.0
51990.0,STARLINK-3657,PAYLOAD,2024-07-01 21:53:19,15.0883638,0.0001376,53.2154,263.4507,77.5633,282.5513,0.0004464,6.823e-05,0.0,0 STARLINK-3657,1 51990U 22025AL  24183.91202732  .00006823  00000-0  44640-3 0  9999,2 51990  53.2154 263.4507 0001376  77.5633 282.5513 15.08836380129472,6917.891,95.438,540.708,538.805,0.0
51990.0,STARLINK-3657,PAYLOAD,2024-07-02 12:11:46,15.08845708,0.0001357,53.217,260.7812,84.4185,275.6962,2.2144e-05,6.5e-07,0.0,0 STARLINK-3657,1 51990U 22025AL  24184.50818048  .00000065  00000-0  22144-4 0  9996,2 51990  53.2170 260.7812 0001357  84.4185 275.6962 15.08845708128460,6917.863,95.437,540.667,538.789,0.0
